{
 "type": "FeatureCollection",
 "name": "passage_geometries",
 "crs": {
  "type": "name",
  "properties": {
   "name": "urn:ogc:def:crs:OGC:1.3:CRS84"
  }
 },
 "features": [
  {
   "type": "Feature",
   "properties": {
    "crossing_id": "CHANNEL_TUNNEL",
    "name": "channel tunnel"
   },
   "geometry": {
    "type": "MultiPolygon",
    "coordinates": [
     [
      [
       [
        1.316705358164332,
        51.10909410872394
       ],
       [
        1.316705358164332,
        51.10974528938025
       ],
       [
        1.316705358164332,
        51.10974528938025
       ],
       [
        1.461911147957959,
        51.05696992518988
       ],
       [
        1.490952305916684,
        51.026319575141855
       ],
       [
        1.551108990259759,
        51.002176309501465
       ],
       [
        1.619563148305326,
        50.99042639187584
       ],
       [
        1.690091674776516,
        50.96757081216818
       ],
       [
        1.747136806481156,
        50.95058509811989
       ],
       [
        1.726393122224923,
        50.944050477757116
       ],
       [
        1.62163751673095,
        50.9780204731463
       ],
       [
        1.502361332257612,
        51.003481672251425
       ],
       [
        1.428721253147986,
        51.0556660680475
       ],
       [
        1.289738568631229,
        51.10258179752517
       ],
       [
        1.316705358164332,
        51.10909410872394
       ]
      ]
     ]
    ]
   }
  },
  {
   "type": "Feature",
   "properties": {
    "crossing_id": "STOREBAELT",
    "name": "Storebælt"
   },
   "geometry": {
    "type": "MultiPolygon",
    "coordinates": [
     [
      [
       [
        10.85594785944605,
        55.30515736171202
       ],
       [
        10.855429267339643,
        55.30515736171202
       ],
       [
        11.020082261123491,
        55.36076080869803
       ],
       [
        11.093981636286317,
        55.35692859293638
       ],
       [
        11.09035149154148,
        55.34675668312126
       ],
       [
        11.02526818218755,
        55.35058988347851
       ],
       [
        10.97418685970658,
        55.32847016114634
       ],
       [
        10.863208148935735,
        55.29600555601178
       ],
       [
        10.85594785944605,
        55.30515736171202
       ]
      ]
     ]
    ]
   }
  },
  {
   "type": "Feature",
   "properties": {
    "crossing_id": "OERESUND",
    "name": "Øresund"
   },
   "geometry": {
    "type": "MultiPolygon",
    "coordinates": [
     [
      [
       [
        12.69124532401622,
        55.63321839504052
       ],
       [
        12.781998942637237,
        55.599245919470796
       ],
       [
        12.893496245514488,
        55.57843789654862
       ],
       [
        12.891421877088861,
        55.55585897766073
       ],
       [
        12.790815008446133,
        55.57081529734163
       ],
       [
        12.686059402952163,
        55.62033574873144
       ],
       [
        12.69124532401622,
        55.63321839504052
       ]
      ]
     ]
    ]
   }
  }
 ]
}